NORAD_CAT_ID,OBJECT_NAME,OBJECT_TYPE,EPOCH,MEAN_MOTION,ECCENTRICITY,INCLINATION,RA_OF_ASC_NODE,ARG_OF_PERICENTER,MEAN_ANOMALY,BSTAR,MEAN_MOTION_DOT,MEAN_MOTION_DDOT,TLE_LINE0,TLE_LINE1,TLE_LINE2,SEMIMAJOR_AXIS,PERIOD,APOGEE,PERIGEE,DECAYED
55742.0,STARLINK-5594,PAYLOAD,2023-09-15 17:40:58,14.9834784,0.0002736,70.0023,8.8325,256.4551,103.6304,-0.00016624,-2.077e-05,0.0,0 STARLINK-5594,1 55742U 23028B   23258.73678424 -.00002077  00000-0 -16624-3 0  9999,2 55742  70.0023   8.8325 0002736 256.4551 103.6304 14.98347840 30333,6950.138,96.106,573.904,570.101,0.0
55742.0,STARLINK-5594,PAYLOAD,2023-09-16 09:42:18,14.98327422,0.00029,70.0017,7.1482,257.9597,102.1237,0.00019298,2.21e-05,0.0,0 STARLINK-5594,1 55742U 23028B   23259.40438397  .00002210  00000-0  19298-3 0  9994,2 55742  70.0017   7.1482 0002900 257.9597 102.1237 14.98327422 30435,6950.201,96.107,574.081,570.05,0.0
55742.0,STARLINK-5594,PAYLOAD,2023-09-16 11:18:26,14.9832791,0.0003151,70.0013,6.9805,259.4804,100.6,0.00015533,1.761e-05,0.0,0 STARLINK-5594,1 55742U 23028B   23259.47114469  .00001761  00000-0  15533-3 0  9990,2 55742  70.0013   6.9805 0003151 259.4804 100.6000 14.98327910 30448,6950.199,96.107,574.254,569.874,0.0
55742.0,STARLINK-5594,PAYLOAD,2023-09-17 09:44:19,14.98334232,0.0002986,70.0015,4.6242,261.0274,99.0547,-3.3226e-05,-4.89e-06,0.0,0 STARLINK-5594,1 55742U 23028B   23260.40578491 -.00000489  00000-0 -33226-4 0  9992,2 55742  70.0015   4.6242 0002986 261.0274  99.0547 14.98334232 30582,6950.18,96.107,574.12,569.969,0.0
55742.0,STARLINK-5594,PAYLOAD,2023-09-18 09:46:18,14.98361854,0.0002712,70.0017,2.1,251.3986,108.6878,0.00023534,2.718e-05,0.0,0 STARLINK-5594,1 55742U 23028B   23261.40715556  .00002718  00000-0  23534-3 0  9993,2 55742  70.0017   2.1000 0002712 251.3986 108.6878 14.98361854 30739,6950.094,96.105,573.844,570.075,0.0
55742.0,STARLINK-5594,PAYLOAD,2023-09-18 12:58:34,14.98355859,0.0002647,70.0025,1.7646,249.2108,110.8768,0.00021809,2.512e-05,0.0,0 STARLINK-5594,1 55742U 23028B   23261.54067745  .00002512  00000-0  21809-3 0  9993,2 55742  70.0025   1.7646 0002647 249.2108 110.8768 14.98355859 30751,6950.113,96.105,573.818,570.138,0.0
55742.0,STARLINK-5594,PAYLOAD,2023-09-18 16:10:50,14.98360527,0.0002753,70.002,1.4274,254.2391,105.8465,0.00026029,3.017e-05,0.0,0 STARLINK-5594,1 55742U 23028B   23261.67419126  .00003017  00000-0  26029-3 0  9991,2 55742  70.0020   1.4274 0002753 254.2391 105.8465 14.98360527 30776,6950.098,96.105,573.877,570.05,0.0
55742.0,STARLINK-5594,PAYLOAD,2023-09-19 00:11:31,14.98339446,0.0002895,70.0017,0.5853,269.0023,91.0805,3.7832e-06,-4.8e-07,0.0,0 STARLINK-5594,1 55742U 23028B   23262.00800809 -.00000048  00000-0  37832-5 0  9999,2 55742  70.0017   0.5853 0002895 269.0023  91.0805 14.98339446 30824,6950.164,96.106,574.041,570.017,0.0
55742.0,STARLINK-5594,PAYLOAD,2023-09-19 09:48:21,14.9832686,0.0003131,70.0011,359.5744,267.0881,92.992,-8.6145e-05,-1.121e-05,0.0,0 STARLINK-5594,1 55742U 23028B   23262.40857648 -.00001121  00000-0 -86145-4 0  9990,2 55742  70.0011 359.5744 0003131 267.0881  92.9920 14.98326860 30888,6950.203,96.107,574.244,569.891,0.0
55742.0,STARLINK-5594,PAYLOAD,2023-09-19 16:12:52,14.98332292,0.0002782,70.0018,358.9002,265.0535,95.0307,-6.84e-05,-9.09e-06,0.0,0 STARLINK-5594,1 55742U 23028B   23262.67561254 -.00000909  00000-0 -68400-4 0  9991,2 55742  70.0018 358.9002 0002782 265.0535  95.0307 14.98332292 30924,6950.186,96.107,573.984,570.117,0.0
55742.0,STARLINK-5594,PAYLOAD,2023-09-20 09:50:22,14.98317494,0.0002871,70.0014,357.0525,263.5838,96.4994,-0.00023373,-2.88e-05,0.0,0 STARLINK-5594,1 55742U 23028B   23263.40998827 -.00002880  00000-0 -23373-3 0  9992,2 55742  70.0014 357.0525 0002871 263.5838  96.4994 14.98317494 31035,6950.232,96.108,574.092,570.101,0.0
55742.0,STARLINK-5594,PAYLOAD,2023-09-20 14:38:47,14.9832499,0.0003298,70.0004,356.545,267.0495,93.0287,-0.00043008,-5.22e-05,0.0,0 STARLINK-5594,1 55742U 23028B   23263.61026952 -.00005220  00000-0 -43008-3 0  9994,2 55742  70.0004 356.5450 0003298 267.0495  93.0287 14.98324990 31067,6950.208,96.107,574.366,569.781,0.0
55742.0,STARLINK-5594,PAYLOAD,2023-09-20 16:14:55,14.98324289,0.0003192,70.001,356.3781,265.9565,94.1229,-0.00043155,-5.238e-05,0.0,0 STARLINK-5594,1 55742U 23028B   23263.67703044 -.00005238  00000-0 -43155-3 0  9996,2 55742  70.0010 356.3781 0003192 265.9565  94.1229 14.98324289 31077,6950.211,96.107,574.294,569.857,0.0
55742.0,STARLINK-5594,PAYLOAD,2023-09-21 09:52:23,14.98319108,0.0003475,70.0001,354.5238,268.0253,92.0508,7.4483e-05,7.96e-06,0.0,0 STARLINK-5594,1 55742U 23028B   23264.41138394  .00000796  00000-0  74483-4 0  9990,2 55742  70.0001 354.5238 0003475 268.0253  92.0508 14.98319108 31189,6950.227,96.108,574.507,569.676,0.0
55742.0,STARLINK-5594,PAYLOAD,2023-09-21 13:04:39,14.98324355,0.0003468,70.0001,354.1877,267.1579,92.9183,4.7166e-05,4.7e-06,0.0,0 STARLINK-5594,1 55742U 23028B   23264.54490224  .00000470  00000-0  47166-4 0  9994,2 55742  70.0001 354.1877 0003468 267.1579  92.9183 14.98324355 31208,6950.21,96.107,574.486,569.665,0.0
55742.0,STARLINK-5594,PAYLOAD,2023-09-21 16:16:55,14.98327721,0.0003421,70.0002,353.8514,266.0769,93.9999,7.52e-05,8.04e-06,0.0,0 STARLINK-5594,1 55742U 23028B   23264.67841992  .00000804  00000-0  75200-4 0  9991,2 55742  70.0002 353.8514 0003421 266.0769  93.9999 14.98327721 31229,6950.2,96.107,574.443,569.687,0.0
55742.0,STARLINK-5594,PAYLOAD,2023-09-22 13:06:40,14.9832689,0.0003254,70.0005,351.6622,269.6596,90.419,0.0003318,3.868e-05,0.0,0 STARLINK-5594,1 55742U 23028B   23265.54629651  .00003868  00000-0  33180-3 0  9997,2 55742  70.0005 351.6622 0003254 269.6596  90.4190 14.98326890 31354,6950.203,96.107,574.329,569.806,0.0
55742.0,STARLINK-5594,PAYLOAD,2023-09-22 16:18:55,14.98332866,0.0003429,70.0003,351.3262,269.5355,90.5411,0.00035251,4.116e-05,0.0,0 STARLINK-5594,1 55742U 23028B   23265.67981200  .00004116  00000-0  35251-3 0  9990,2 55742  70.0003 351.3262 0003429 269.5355  90.5411 14.98332866 31374,6950.184,96.107,574.432,569.666,0.0
55742.0,STARLINK-5594,PAYLOAD,2023-09-23 11:32:33,14.98332227,0.0003165,70.0009,349.3069,262.8227,97.2572,4.9239e-05,4.95e-06,0.0,0 STARLINK-5594,1 55742U 23028B   23266.48093932  .00000495  00000-0  49239-4 0  9994,2 55742  70.0009 349.3069 0003165 262.8227  97.2572 14.98332227 31499,6950.186,96.107,574.251,569.851,0.0
55742.0,STARLINK-5594,PAYLOAD,2023-09-23 13:08:41,14.98331976,0.0003193,70.0009,349.1386,263.0002,97.0794,4.4518e-05,4.38e-06,0.0,0 STARLINK-5594,1 55742U 23028B   23266.54769941  .00000438  00000-0  44518-4 0  9993,2 55742  70.0009 349.1386 0003193 263.0002  97.0794 14.98331976 31500,6950.187,96.107,574.271,569.833,0.0
55742.0,STARLINK-5594,PAYLOAD,2023-09-24 13:10:41,14.98337447,0.0003037,70.0012,346.6149,254.796,105.2863,-6.7389e-05,-8.97e-06,0.0,0 STARLINK-5594,1 55742U 23028B   23267.54909500 -.00000897  00000-0 -67389-4 0  9993,2 55742  70.0012 346.6149 0003037 254.7960 105.2863 14.98337447 31654,6950.17,96.107,574.146,569.924,0.0
55742.0,STARLINK-5594,PAYLOAD,2023-09-24 14:46:49,14.98341343,0.0003142,70.0008,346.4458,256.2081,103.8729,-0.00010539,-1.351e-05,0.0,0 STARLINK-5594,1 55742U 23028B   23267.61585291 -.00001351  00000-0 -10539-3 0  9998,2 55742  70.0008 346.4458 0003142 256.2081 103.8729 14.98341343 31664,6950.158,96.106,574.207,569.839,0.0
55742.0,STARLINK-5594,PAYLOAD,2023-09-25 10:00:26,14.98330732,0.0003034,70.0009,344.4263,257.1719,102.9101,1.8603e-05,1.29e-06,0.0,0 STARLINK-5594,1 55742U 23028B   23268.41697452  .00000129  00000-0  18603-4 0  9991,2 55742  70.0009 344.4263 0003034 257.1719 102.9101 14.98330732 31782,6950.191,96.107,574.164,569.947,0.0
55742.0,STARLINK-5594,PAYLOAD,2023-09-25 13:12:42,14.98334394,0.0003241,69.9999,344.0879,267.4932,92.5856,5.7601e-05,5.94e-06,0.0,0 STARLINK-5594,1 55742U 23028B   23268.55049135  .00000594  00000-0  57601-4 0  9992,2 55742  69.9999 344.0879 0003241 267.4932  92.5856 14.98334394 31809,6950.179,96.107,574.297,569.792,0.0
55742.0,STARLINK-5594,PAYLOAD,2023-09-25 14:48:50,14.98336652,0.0003237,70.0001,343.9198,269.4319,90.6469,6.2801e-05,6.57e-06,0.0,0 STARLINK-5594,1 55742U 23028B   23268.61724872  .00000657  00000-0  62801-4 0  9995,2 55742  70.0001 343.9198 0003237 269.4319  90.6469 14.98336652 31813,6950.172,96.107,574.287,569.788,0.0
55742.0,STARLINK-5594,PAYLOAD,2023-09-26 10:02:28,14.98321609,0.0003112,70.0005,341.9002,253.358,106.7237,-7.8801e-05,-1.033e-05,0.0,0 STARLINK-5594,1 55742U 23028B   23269.41838489 -.00001033  00000-0 -78801-4 0  9992,2 55742  70.0005 341.9002 0003112 253.3580 106.7237 14.98321609 31934,6950.219,96.108,574.247,569.921,0.0
55742.0,STARLINK-5594,PAYLOAD,2023-09-26 14:50:52,14.98324093,0.0003157,70.0006,341.3961,256.0655,104.0153,-4.4723e-05,-6.27e-06,0.0,0 STARLINK-5594,1 55742U 23028B   23269.61866302 -.00000627  00000-0 -44723-4 0  9993,2 55742  70.0006 341.3961 0003157 256.0655 104.0153 14.98324093 31966,6950.211,96.107,574.27,569.882,0.0
55742.0,STARLINK-5594,PAYLOAD,2023-09-27 10:04:28,14.98335428,0.0003337,69.9999,339.3755,266.3423,93.7355,9.8746e-05,1.086e-05,0.0,0 STARLINK-5594,1 55742U 23028B   23270.41977185  .00001086  00000-0  98746-4 0  9997,2 55742  69.9999 339.3755 0003337 266.3423  93.7355 14.98335428 32085,6950.176,96.107,574.36,569.722,0.0
55742.0,STARLINK-5594,PAYLOAD,2023-09-27 13:16:43,14.98343764,0.0003388,69.9994,339.0379,268.6091,91.468,0.00011202,1.244e-05,0.0,0 STARLINK-5594,1 55742U 23028B   23270.55328557  .00001244  00000-0  11202-3 0  9992,2 55742  69.9994 339.0379 0003388 268.6091  91.4680 14.98343764 32102,6950.15,96.106,574.37,569.661,0.0
55742.0,STARLINK-5594,PAYLOAD,2023-09-27 14:52:51,14.98345241,0.0003391,69.9994,338.8688,271.1605,88.9165,0.00011522,1.283e-05,0.0,0 STARLINK-5594,1 55742U 23028B   23270.62004440  .00001283  00000-0  11522-3 0  9990,2 55742  69.9994 338.8688 0003391 271.1605  88.9165 14.98345241 32118,6950.146,96.106,574.368,569.654,0.0
